IRIDIUM 126             
1 42809U 17039G   25282.47036438  .00000120  00000+0  35783-4 0  9999
2 42809  86.3913  98.4651 0002328  91.2561 268.8902 14.34216891434013
IRIDIUM 124             
1 42810U 17039H   25282.35207917  .00000529  00000+0  15123-3 0  9998
2 42810  86.4519  35.2082 0002180  89.5472 270.5979 14.43279637438938
IRIDIUM 128             
1 42811U 17039J   25282.53085845  .00000250  00000+0  82219-4 0  9995
2 42811  86.3954 129.9671 0002028  74.4372 285.7048 14.34217406434059
IRIDIUM 121             
1 42812U 17039K   25282.48938606  .00000098  00000+0  27900-4 0  9998
2 42812  86.3914  98.4831 0002000  86.8510 273.2915 14.34219003433896
IRIDIUM 133             
1 42955U 17061A   25282.49280908  .00000304  00000+0  10163-3 0  9999
2 42955  86.3958 130.0947 0002110  84.5131 275.6306 14.34218007418840
IRIDIUM 100             
1 42956U 17061B   25282.48646672  .00000109  00000+0  31814-4 0  9993
2 42956  86.3952 130.0216 0002265  84.2571 275.8884 14.34218246418848
IRIDIUM 122             
1 42957U 17061C   25282.52452273  .00000184  00000+0  58750-4 0  9992
2 42957  86.3953 130.0053 0002221  84.6552 275.4897 14.34218387418851
IRIDIUM 129             
1 42958U 17061D   25282.13127470  .00000240  00000+0  78638-4 0  9998
2 42958  86.3956 130.2340 0002159  97.9330 262.2111 14.34216208418816
